STARLINK-2619           
1 48475U 21040AZ  24236.11516192  .00004113  00000+0  29498-3 0  9991
2 48475  53.0530 201.5993 0001660  86.4793 273.6386 15.06387539182828
STARLINK-2723           
1 48476U 21040BA  24236.20361629 -.00004994  00000+0 -31670-3 0  9999
2 48476  53.0526 201.2038 0001469  83.5581 276.5575 15.06385879182839
STARLINK-2728           
1 48478U 21040BC  24236.18888064  .00000200  00000+0  32297-4 0  9996
2 48478  53.0533 201.2665 0001356  93.0629 267.0515 15.06402403182167
STARLINK-2755           
1 48479U 21040BD  24236.18519471 -.00001384  00000+0 -74042-4 0  9990
2 48479  53.0530 201.2854 0001242  94.8768 265.2363 15.06397360182832
STARLINK-2706           
1 48481U 21040BF  24236.23961537 -.00000066  00000+0  14501-4 0  9992
2 48481  53.0549 211.3243 0001687 105.6948 254.4227 15.06390447182695
STARLINK-2525           
1 48482U 21040BG  24236.20639064 -.00000831  00000+0 -36900-4 0  9995
2 48482  53.0530 211.1916 0001695  90.6652 269.4531 15.06396069181863
STARLINK-2531           
1 48483U 21040BH  24236.20270827  .00000107  00000+0  26095-4 0  9992
2 48483  53.0537 211.2066 0001473  96.9049 263.2108 15.06393915182692
STARLINK-2696           
1 48484U 21040BJ  24235.65347306  .00036357  00000+0  22791-2 0  9991
2 48484  53.0516 213.7203 0003270  63.5342 296.5983 15.09020071181336
STARLINK-2500           
1 48485U 21040BK  24236.21007896 -.00000336  00000+0 -36319-5 0  9996
2 48485  53.0525 211.1747 0001678  94.4940 265.6240 15.06395132182692
STARLINK-2494           
1 48487U 21040BM  24236.21744234 -.00001831  00000+0 -10405-3 0  9999
2 48487  53.0538 211.1412 0001386  89.5798 270.5350 15.06400063182708
STARLINK-2063           
1 48553U 21041A   24236.12808133  .00061942  00000+0  41447-2 0  9999
2 48553  53.0533 141.5444 0001328  77.1355 282.9782 15.06366632180714
STARLINK-2139           
1 48554U 21041B   24236.58334491  .00065572  00000+0  43809-2 0  9998
2 48554  53.0531 139.8072 0001024  90.5742  19.6669 15.06394667180721
STARLINK-2145           
1 48555U 21041C   24235.96498829  .00000713  00000+0  66768-4 0  9993
2 48555  53.0538 152.2783 0001427  65.2252 294.8885 15.06384724180099
STARLINK-2151           
1 48556U 21041D   24236.15294257  .00000738  00000+0  68434-4 0  9994
2 48556  53.0526 151.4292 0001245  85.8827 274.2304 15.06382206180571
STARLINK-2155           
1 48557U 21041E   24236.15756529  .00009019  00000+0  62368-3 0  9990
2 48557  53.0537 141.4139 0001588  84.0799 276.0371 15.06394727180713
STARLINK-2166           
1 48558U 21041F   24236.15386833  .00030169  00000+0  20371-2 0  9995
2 48558  53.0538 141.4307 0001700  90.8551 269.2632 15.06373004180662
STARLINK-2187           
1 48562U 21041K   24235.93272254 -.00002403  00000+0 -14257-3 0  9995
2 48562  53.0534 142.4210 0001236  88.2147 271.8983 15.06381683180236
STARLINK-2188           
1 48563U 21041L   24235.95115009  .00018736  00000+0  12740-2 0  9990
2 48563  53.0532 142.3394 0001594  98.2557 261.8613 15.06380789180235
STARLINK-2190           
1 48564U 21041M   24236.14281196  .00037031  00000+0  24931-2 0  9998
2 48564  53.0525 141.4814 0001738  84.9695 275.1492 15.06381816180662
STARLINK-2191           
1 48565U 21041N   24236.47435411  .00061992  00000+0  37190-2 0  9990
2 48565  53.0527 139.3372 0002255 208.1555 151.9314 15.10373892180776
STARLINK-2214           
1 48566U 21041P   24236.16031712  .00031447  00000+0  21216-2 0  9997
2 48566  53.0524 151.3679 0001551  80.2581 279.8583 15.06382964180520
STARLINK-2217           
1 48568U 21041R   24236.05433879  .00018593  00000+0  12648-2 0  9993
2 48568  53.0530 141.8752 0001383  80.9217 279.1928 15.06370949180640
STARLINK-2219           
1 48569U 21041S   24236.14650050  .00033078  00000+0  22304-2 0  9991
2 48569  53.0533 141.4640 0001760  88.2557 271.8634 15.06379315180664
STARLINK-2220           
1 48570U 21041T   24236.46624452 -.00002095  00000+0 -12184-3 0  9998
2 48570  53.0538 150.0282 0001087  94.8038 265.3075 15.06397550180565
STARLINK-2221           
1 48571U 21041U   24236.14188925  .00031982  00000+0  21576-2 0  9993
2 48571  53.0534 151.4846 0001603 105.7921 254.3245 15.06377083180522
STARLINK-2222           
1 48572U 21041V   24236.20455173  .00030768  00000+0  20769-2 0  9997
2 48572  53.0530 151.2013 0001692  80.6491 279.4689 15.06374536180535
STARLINK-2224           
1 48573U 21041W   24236.44874497 -.00001940  00000+0 -11142-3 0  9996
2 48573  53.0553 140.1061 0001591  89.6491 270.4680 15.06389842180750
STARLINK-2225           
1 48574U 21041X   24235.95390766  .00017622  00000+0  11997-2 0  9993
2 48574  53.0524 112.4124 0001007  80.5646 279.5456 15.06376586181040
STARLINK-2227           
1 48575U 21041Y   24236.36771158  .00033353  00000+0  22482-2 0  9998
2 48575  53.0535 100.7909 0001751  90.6865 269.4324 15.06387345181312
STARLINK-2228           
1 48576U 21041Z   24235.97002936 -.00001102  00000+0 -55065-4 0  9990
2 48576  53.0536 117.2549 0001346  96.7213 263.3929 15.06400853180594
STARLINK-2231           
1 48577U 21041AA  24236.00277460  .00024630  00000+0  16681-2 0  9990
2 48577  53.0527 142.3761 0001103  85.5840 274.5275 15.06367710180685
STARLINK-2232           
1 48578U 21041AB  24236.00649385  .00021004  00000+0  14254-2 0  9996
2 48578  53.0527 142.6005 0001400  86.2998 273.8151 15.06382930180688
STARLINK-2234           
1 48580U 21041AD  24235.93317147 -.00000534  00000+0 -16943-4 0  9994
2 48580  53.0523 117.4282 0001463  90.5716 269.5440 15.06389241180583
STARLINK-2235           
1 48581U 21041AE  24235.89354726 -.00001433  00000+0 -77313-4 0  9991
2 48581  53.0528 107.6066 0001684  86.4912 273.6269 15.06387874180728
STARLINK-2236           
1 48582U 21041AF  24235.94148360  .00021711  00000+0  14730-2 0  9994
2 48582  53.0532 107.5463 0001597  96.0390 264.0781 15.06372857180722
STARLINK-2237           
1 48583U 21041AG  24236.47731128  .00029570  00000+0  19958-2 0  9992
2 48583  53.0532 149.9778 0001604 100.9214 259.1955 15.06399069180622
STARLINK-2238           
1 48584U 21041AH  24236.18611824  .00005325  00000+0  37614-3 0  9993
2 48584  53.0539 151.2850 0001457  83.7758 276.3397 15.06393740180524
STARLINK-2240           
1 48585U 21041AJ  24236.06447824  .00030564  00000+0  20636-2 0  9996
2 48585  53.0531 151.8300 0001312  85.8206 274.2933 15.06368932180500
STARLINK-2241           
1 48586U 21041AK  24236.18981684  .00008966  00000+0  62005-3 0  9995
2 48586  53.0536 151.2686 0001206  83.8601 276.2526 15.06400264180523
STARLINK-2242           
1 48587U 21041AL  24236.19346190 -.00026333  00000+0 -17565-2 0  9994
2 48587  53.0523 151.2499 0001547  80.3220 279.7944 15.06378008180521
STARLINK-2244           
1 48588U 21041AM  24236.10965802  .00019117  00000+0  12993-2 0  9993
2 48588  53.0539 141.6660 0000980 110.7957 249.3137 15.06386542180706
STARLINK-2245           
1 48589U 21041AN  24236.10226154  .00025503  00000+0  17261-2 0  9993
2 48589  53.0533 141.6612 0001492  79.5452 280.5705 15.06372763180707
STARLINK-2249           
1 48592U 21041AR  24236.18247085  .00002372  00000+0  17814-3 0  9995
2 48592  53.0541 151.5320 0001470 101.8099 258.3055 15.06390541180422
STARLINK-2250           
1 48593U 21041AS  24235.96865928  .00000864  00000+0  76944-4 0  9997
2 48593  53.0533 152.2585 0002140  90.8126 269.3108 15.06384213180091
STARLINK-2251           
1 48594U 21041AT  24236.39529975 -.00002091  00000+0 -12153-3 0  9992
2 48594  53.0527 120.4331 0001334  90.9335 269.1807 15.06394362181033
STARLINK-2252           
1 48595U 21041AU  24236.14926365  .00031784  00000+0  21443-2 0  9990
2 48595  53.0528 151.4484 0001741  83.8561 276.2626 15.06378255181392
STARLINK-2253           
1 48596U 21041AV  24236.17137683  .00032395  00000+0  21848-2 0  9999
2 48596  53.0531 151.3492 0001448  86.3017 273.8138 15.06382007180584
STARLINK-2255           
1 48597U 21041AW  24236.17876465  .00000147  00000+0  28801-4 0  9996
2 48597  53.0540 151.3179 0001597 100.9817 259.1352 15.06398753181393
STARLINK-2275           
1 48600U 21041AZ  24236.44506903  .00007515  00000+0  52359-3 0  9998
2 48600  53.0520 140.1152 0001970  66.2692 293.8504 15.06349648181576
STARLINK-2713           
1 48602U 21041BB  24236.10918482 -.00001255  00000+0 -65419-4 0  9991
2 48602  53.0550 126.6310 0001473 131.9827 228.1287 15.06389336181739
STARLINK-2714           
1 48603U 21041BC  24236.42015822  .00031840  00000+0  21459-2 0  9998
2 48603  53.0522 120.2342 0002041  91.7843 268.3380 15.06414749181857
STARLINK-2757           
1 48604U 21041BD  24235.95760349 -.00001314  00000+0 -69396-4 0  9996
2 48604  53.0534 152.3073 0001518  77.0503 283.0655 15.06383219181368
STARLINK-2739           
1 48639U 21044B   24236.42617209  .00001405  00000+0  11319-3 0  9996
2 48639  53.0537 125.2146 0001501  91.0588 269.0573 15.06401457179781
STARLINK-2736           
1 48640U 21044C   24236.41882865 -.00000951  00000+0 -44928-4 0  9999
2 48640  53.0524 125.5212 0001611  89.4027 270.7146 15.06393700179716
STARLINK-2754           
1 48641U 21044D   24235.96680902  .00028636  00000+0  19349-2 0  9992
2 48641  53.0528 132.2695 0001556  78.1638 281.9525 15.06373172178740
STARLINK-2646           
1 48642U 21044E   24235.98155355  .00019870  00000+0  13500-2 0  9997
2 48642  53.0529 132.2107 0001812  88.3014 271.8182 15.06374107179585
STARLINK-2704           
1 48643U 21044F   24236.09488306  .00027053  00000+0  18289-2 0  9997
2 48643  53.0528 131.6823 0001083  68.9804 291.1301 15.06383409179666
STARLINK-2695           
1 48644U 21044G   24236.09213092  .00032942  00000+0  22222-2 0  9991
2 48644  53.0527 131.7061 0001525  74.1370 285.9787 15.06365186179604
STARLINK-2733           
1 48645U 21044H   24236.08844000  .00024145  00000+0  16356-2 0  9997
2 48645  53.0524 131.7234 0001494 109.4514 250.6637 15.06370238179664
